COMMENT,ORIGINATOR,NORAD_CAT_ID,OBJECT_NAME,OBJECT_TYPE,CLASSIFICATION_TYPE,INTLDES,EPOCH,EPOCH_MICROSECONDS,MEAN_MOTION,ECCENTRICITY,INCLINATION,RA_OF_ASC_NODE,ARG_OF_PERICENTER,MEAN_ANOMALY,EPHEMERIS_TYPE,ELEMENT_SET_NO,REV_AT_EPOCH,BSTAR,MEAN_MOTION_DOT,MEAN_MOTION_DDOT,FILE,TLE_LINE0,TLE_LINE1,TLE_LINE2,OBJECT_ID,OBJECT_NUMBER,SEMIMAJOR_AXIS,PERIOD,APOGEE,PERIGEE,DECAYED
"GENERATED VIA SPACETRACK.ORG API","18 SPCS","12345","COSMOS 1174 DEB","DEBRIS","U","80030T","1989-12-18 19:35:17","656511","14.48734953","0.0447454","66.0463","136.0162","53.4338","310.7075","0","999","94435","0.0019575","0.00027571","0","131042","0 COSMOS 1174 DEB","1 12345U 80030  T 89352.81617658  .00027571 +00000-0 +19575-2 0  9996","2 12345 066.0463 136.0162 0447454 053.4338 310.7075 14.48734953944351","1980-030T","12345","7107.925","99.397","1047.837","411.743","1"
"GENERATED VIA SPACETRACK.ORG API","18 SPCS","12345","COSMOS 1174 DEB","DEBRIS","U","80030T","1989-12-17 20:23:33","218591","14.4868122","0.0447643","66.046","138.701","54.0386","310.1384","0","999","94421","0.0019566","0.00027541","0","131042","0 COSMOS 1174 DEB","1 12345U 80030  T 89351.84969003  .00027541 +00000-0 +19566-2 0  9999","2 12345 066.0460 138.7010 0447643 054.0386 310.1384 14.48681220944219","1980-030T","12345","7108.101","99.401","1048.155","411.776","1"
"GENERATED VIA SPACETRACK.ORG API","18 SPCS","12345","COSMOS 1174 DEB","DEBRIS","U","80030T","1989-12-17 10:27:04","732416","14.4865893","0.0447698","66.0467","139.8532","54.2712","309.9155","0","999","94415","0.0019604","0.00027606","0","34686","0 COSMOS 1174 DEB","1 12345U 80030  T 89351.43547144  .00027606 +00000-0 +19604-2 0  9997","2 12345 066.0467 139.8532 0447698 054.2712 309.9155 14.48658930944159","1980-030T","12345","7108.174","99.402","1048.270","411.807","1"
"GENERATED VIA SPACETRACK.ORG API","18 SPCS","12345","COSMOS 1174 DEB","DEBRIS","U","80030T","1989-12-15 20:20:30","204383","14.4857275","0.0448002","66.0469","144.2628","55.2558","308.9864","0","999","94392","0.0019758","0.00027798","0","34686","0 COSMOS 1174 DEB","1 12345U 80030  T 89349.84757181  .00027798 +00000-0 +19758-2 0  9995","2 12345 066.0469 144.2628 0448002 055.2558 308.9864 14.48572750943921","1980-030T","12345","7108.455","99.408","1048.781","411.860","1"
"GENERATED VIA SPACETRACK.ORG API","18 SPCS","12345","COSMOS 1174 DEB","DEBRIS","U","80030T","1989-12-13 20:17:14","15903","14.4846247","0.0448198","66.0465","149.8221","56.5233","307.7866","0","999","94363","0.0019965","0.00028","0","131042","0 COSMOS 1174 DEB","1 12345U 80030  T 89347.84530111  .00028000 +00000-0 +19965-2 0  9992","2 12345 066.0465 149.8221 0448198 056.5233 307.7866 14.48462470943631","1980-030T","12345","7108.816","99.416","1049.297","412.066","1"
"GENERATED VIA SPACETRACK.ORG API","18 SPCS","12345","COSMOS 1174 DEB","DEBRIS","U","80030T","1989-12-12 21:05:14","87328","14.48408646","0.0448385","66.0463","152.5058","57.1194","307.223","0","999","94349","0.0020043","0.00028092","0","131042","0 COSMOS 1174 DEB","1 12345U 80030  T 89346.87863527  .00028092 +00000-0 +20043-2 0  9994","2 12345 066.0463 152.5058 0448385 057.1194 307.2230 14.48408646943498","1980-030T","12345","7108.992","99.419","1049.614","412.101","1"
"GENERATED VIA SPACETRACK.ORG API","18 SPCS","12345","COSMOS 1174 DEB","DEBRIS","U","80030T","1989-12-11 21:53:10","240512","14.48374062","0.0448939","66.0543","155.198","57.5727","306.7902","0","999","94335","0.0023952","0.00033675","0","131042","0 COSMOS 1174 DEB","1 12345U 80030  T 89345.91192408  .00033675 +00000-0 +23952-2 0  9996","2 12345 066.0543 155.1980 0448939 057.5727 306.7902 14.48374062943350","1980-030T","12345","7109.106","99.422","1050.126","411.815","1"
"GENERATED VIA SPACETRACK.ORG API","18 SPCS","12345","COSMOS 1174 DEB","DEBRIS","U","80030T","1989-12-11 13:35:59","760095","14.48351106","0.0449244","66.0508","156.1507","57.9008","306.4639","0","999","94330","0.0023963","0.00033779","0","34686","0 COSMOS 1174 DEB","1 12345U 80030  T 89345.56666389  .00033779 +00000-0 +23963-2 0  9998","2 12345 066.0508 156.1507 0449244 057.9008 306.4639 14.48351106943306","1980-030T","12345","7109.181","99.423","1050.421","411.670","1"
"GENERATED VIA SPACETRACK.ORG API","18 SPCS","12345","COSMOS 1174 DEB","DEBRIS","U","80030T","1989-12-10 21:01:37","931808","14.48313811","0.0448715","66.0471","158.0676","58.2433","306.1547","0","999","94320","0.0025162","0.00035265","0","131042","0 COSMOS 1174 DEB","1 12345U 80030  T 89344.87613347  .00035265 +00000-0 +25162-2 0  9992","2 12345 066.0471 158.0676 0448715 058.2433 306.1547 14.48313811943206","1980-030T","12345","7109.303","99.426","1050.173","412.163","1"
"GENERATED VIA SPACETRACK.ORG API","18 SPCS","12345","COSMOS 1174 DEB","DEBRIS","U","80030T","1989-12-10 14:23:52","648223","14.48295944","0.0449005","66.0483","158.8352","58.5197","305.8882","0","999","94316","0.0025228","0.0003546","0","34686","0 COSMOS 1174 DEB","1 12345U 80030  T 89344.59991491  .00035460 +00000-0 +25228-2 0  9990","2 12345 066.0483 158.8352 0449005 058.5197 305.8882 14.48295944943160","1980-030T","12345","7109.361","99.427","1050.440","412.012","1"
"GENERATED VIA SPACETRACK.ORG API","18 SPCS","12345","COSMOS 1174 DEB","DEBRIS","U","80030T","1989-12-09 13:32:15","791424","14.48228983","0.0449367","66.0479","161.7094","59.1398","305.3011","0","999","94301","0.0026046","0.0003662","0","34686","0 COSMOS 1174 DEB","1 12345U 80030  T 89343.56407166  .00036620 +00000-0 +26046-2 0  9995","2 12345 066.0479 161.7094 0449367 059.1398 305.3011 14.48228983943014","1980-030T","12345","7109.580","99.432","1050.926","411.964","1"
"GENERATED VIA SPACETRACK.ORG API","18 SPCS","12345","COSMOS 1174 DEB","DEBRIS","U","80030T","1989-12-08 22:37:15","819743","14.48187998","0.0449395","66.0487","163.4339","59.5239","304.9441","0","999","94292","0.0026724","0.00037537","0","34686","0 COSMOS 1174 DEB","1 12345U 80030  T 89342.94254421  .00037537 +00000-0 +26724-2 0  9991","2 12345 066.0487 163.4339 0449395 059.5239 304.9441 14.48187998942924","1980-030T","12345","7109.714","99.435","1051.086","412.072","1"
"GENERATED VIA SPACETRACK.ORG API","18 SPCS","12345","COSMOS 1174 DEB","DEBRIS","U","80030T","1989-12-08 14:20:01","663871","14.48162226","0.0449466","66.049","164.392","59.7463","304.7213","0","999","94287","0.0026751","0.00037558","0","34686","0 COSMOS 1174 DEB","1 12345U 80030  T 89342.59724148  .00037558 +00000-0 +26751-2 0  9993","2 12345 066.0490 164.3920 0449466 059.7463 304.7213 14.48162226942870","1980-030T","12345","7109.799","99.436","1051.225","412.102","1"
"GENERATED VIA SPACETRACK.ORG API","18 SPCS","12345","COSMOS 1174 DEB","DEBRIS","U","80030T","1989-12-07 21:45:32","15520","14.48120886","0.0449094","66.0451","166.307","60.1295","304.3619","0","999","94277","0.0028919","0.00040384","0","131042","0 COSMOS 1174 DEB","1 12345U 80030  T 89341.90662055  .00040384 +00000-0 +28919-2 0  9994","2 12345 066.0451 166.3070 0449094 060.1295 304.3619 14.48120886942772","1980-030T","12345","7109.934","99.439","1051.102","412.496","1"
"GENERATED VIA SPACETRACK.ORG API","18 SPCS","12345","COSMOS 1174 DEB","DEBRIS","U","80030T","1989-12-07 11:48:48","334175","14.48096752","0.044938","66.0462","167.4581","60.4363","304.0274","0","999","94271","0.0030351","0.00042541","0","34686","0 COSMOS 1174 DEB","1 12345U 80030  T 89341.49222609  .00042541 +00000-0 +30351-2 0  9995","2 12345 066.0462 167.4581 0449380 060.4363 304.0274 14.48096752942712","1980-030T","12345","7110.013","99.441","1051.388","412.368","1"
"GENERATED VIA SPACETRACK.ORG API","18 SPCS","12345","COSMOS 1174 DEB","DEBRIS","U","80030T","1989-12-06 22:33:08","782271","14.48058862","0.0449074","66.0466","168.9898","60.7491","303.6315","0","999","94263","0.003236","0.00045106","0","131042","0 COSMOS 1174 DEB","1 12345U 80030  T 89340.93968498  .00045106 +00000-0 +32360-2 0  9998","2 12345 066.0466 168.9898 0449074 060.7491 303.6315 14.48058862942630","1980-030T","12345","7110.137","99.443","1051.300","412.704","1"
"GENERATED VIA SPACETRACK.ORG API","18 SPCS","12345","COSMOS 1174 DEB","DEBRIS","U","80030T","1989-12-06 19:14:14","238815","14.48086391","0.0449609","66.0528","169.3744","61.0761","303.455","0","999","94261","0.0039265","0.00055203","0","34686","0 COSMOS 1174 DEB","1 12345U 80030  T 89340.80155369  .00055203 +00000-0 +39265-2 0  9999","2 12345 066.0528 169.3744 0449609 061.0761 303.4550 14.48086391942617","1980-030T","12345","7110.047","99.442","1051.586","412.238","1"
"GENERATED VIA SPACETRACK.ORG API","18 SPCS","12345","COSMOS 1174 DEB","DEBRIS","U","80030T","1989-12-06 12:36:25","20575","14.48058884","0.0449905","66.0521","170.1405","61.1893","303.3438","0","999","94257","0.0039405","0.00055454","0","34686","0 COSMOS 1174 DEB","1 12345U 80030  T 89340.52528959  .00055454 +00000-0 +39405-2 0  9991","2 12345 066.0521 170.1405 0449905 061.1893 303.3438 14.48058884942575","1980-030T","12345","7110.137","99.443","1051.891","412.113","1"
"GENERATED VIA SPACETRACK.ORG API","18 SPCS","12345","COSMOS 1174 DEB","DEBRIS","U","80030T","1989-12-05 23:20:45","155903","14.48005557","0.0449128","66.0493","171.6715","61.5229","303.0321","0","999","94249","0.0040222","0.00056019","0","131042","0 COSMOS 1174 DEB","1 12345U 80030  T 89339.97274486  .00056019 +00000-0 +40222-2 0  9998","2 12345 066.0493 171.6715 0449128 061.5229 303.0321 14.48005557942495","1980-030T","12345","7110.312","99.447","1051.521","412.833","1"
"GENERATED VIA SPACETRACK.ORG API","18 SPCS","12345","COSMOS 1174 DEB","DEBRIS","U","80030T","1989-12-05 23:20:45","265632","14.48005556","0.0449128","66.0493","171.6716","61.523","303.0321","0","999","94249","0.0040222","0.00056235","0","34686","0 COSMOS 1174 DEB","1 12345U 80030  T 89339.97274613  .00056235 +00000-0 +40222-2 0  9990","2 12345 066.0493 171.6716 0449128 061.5230 303.0321 14.48005556942497","1980-030T","12345","7110.312","99.447","1051.521","412.833","1"
